
# E30 (GNSS)
1 40890U 15045B   25332.84552309  .00000026  00000+0  00000+0 0  9993
2 40890  55.0075 227.1375 0003560  32.1082 327.9865  1.70472951 63625

# E07 (GNSS)
1 41859U 16069A   25334.48023493  .00000047  00000+0  00000+0 0  9998
2 41859  55.3750 106.5899 0002059 325.7449  34.2162  1.70474248 56019

# E08 (GNSS)
1 41175U 15079B   25334.40706765  .00000048  00000+0  00000+0 0  9992
2 41175  55.7038 106.7167 0001887  11.7228 348.2564  1.70474193 61804

# E09 (GNSS)
1 41174U 15079A   25333.01375871  .00000054  00000+0  00000+0 0  9994
2 41174  55.7045 106.7579 0002328 359.5232   0.4568  1.70474337 61369

# E01 (GNSS)
1 41550U 16030B   25333.02872365  .00000026  00000+0  00000+0 0  9990
2 41550  55.1566 227.1992 0001282 243.2248 116.8349  1.70473428 59254

# E02 (GNSS)
1 41549U 16030A   25332.77126296  .00000026  00000+0  00000+0 0  9994
2 41549  55.1573 227.2083 0003761   3.3414 356.7341  1.70472998 59254

# E03 (GNSS)
1 41860U 16069B   25333.16075799  .00000053  00000+0  00000+0 0  9997
2 41860  55.3717 106.6219 0002283  36.1467 323.8485  1.70474484 56245

# E04 (GNSS)
1 41861U 16069C   25332.35517975  .00000054  00000+0  00000+0 0  9996
2 41861  55.3734 106.6518 0001972 283.8228  76.1363  1.70474759 56098
